[{"OBJECT_NAME":"STARLINK-33744","OBJECT_ID":"2025-070M","EPOCH":"2026-01-25T17:31:02.807040","MEAN_MOTION":15.27607683,"ECCENTRICITY":0.00014288,"INCLINATION":43.0014,"RA_OF_ASC_NODE":142.6405,"ARG_OF_PERICENTER":273.7909,"MEAN_ANOMALY":86.2779,"EPHEMERIS_TYPE":0,"CLASSIFICATION_TYPE":"U","NORAD_CAT_ID":63471,"ELEMENT_SET_NO":999,"REV_AT_EPOCH":4640,"BSTAR":0.0015800217,"MEAN_MOTION_DOT":0.0004351,"MEAN_MOTION_DDOT":0},{"OBJECT_NAME":"STARLINK-33766","OBJECT_ID":"2025-070N","EPOCH":"2026-01-25T14:35:41.247456","MEAN_MOTION":15.27609594,"ECCENTRICITY":0.0001455,"INCLINATION":42.9997,"RA_OF_ASC_NODE":143.4488,"ARG_OF_PERICENTER":283.3069,"MEAN_ANOMALY":76.762,"EPHEMERIS_TYPE":0,"CLASSIFICATION_TYPE":"U","NORAD_CAT_ID":63472,"ELEMENT_SET_NO":999,"REV_AT_EPOCH":4638,"BSTAR":0.0015368,"MEAN_MOTION_DOT":0.00042309,"MEAN_MOTION_DDOT":0},{"OBJECT_NAME":"STARLINK-33765","OBJECT_ID":"2025-070P","EPOCH":"2026-01-25T17:18:05.299488","MEAN_MOTION":15.27608708,"ECCENTRICITY":0.00021947,"INCLINATION":43.0013,"RA_OF_ASC_NODE":142.5709,"ARG_OF_PERICENTER":258.9589,"MEAN_ANOMALY":101.1016,"EPHEMERIS_TYPE":0,"CLASSIFICATION_TYPE":"U","NORAD_CAT_ID":63473,"ELEMENT_SET_NO":999,"REV_AT_EPOCH":4640,"BSTAR":0.0013454912,"MEAN_MOTION_DOT":0.00036982,"MEAN_MOTION_DDOT":0},{"OBJECT_NAME":"STARLINK-33735","OBJECT_ID":"2025-070Q","EPOCH":"2026-01-25T16:52:10.413984","MEAN_MOTION":15.27626107,"ECCENTRICITY":0.00037623,"INCLINATION":43.0029,"RA_OF_ASC_NODE":142.4362,"ARG_OF_PERICENTER":250.1172,"MEAN_ANOMALY":109.9274,"EPHEMERIS_TYPE":0,"CLASSIFICATION_TYPE":"U","NORAD_CAT_ID":63474,"ELEMENT_SET_NO":999,"REV_AT_EPOCH":4640,"BSTAR":0.0023236111,"MEAN_MOTION_DOT":0.00064337,"MEAN_MOTION_DDOT":0},{"OBJECT_NAME":"STARLINK-33731","OBJECT_ID":"2025-070R","EPOCH":"2026-01-25T16:15:23.792544","MEAN_MOTION":15.27579329,"ECCENTRICITY":0.00014486,"INCLINATION":42.9997,"RA_OF_ASC_NODE":143.1071,"ARG_OF_PERICENTER":280.4567,"MEAN_ANOMALY":79.6121,"EPHEMERIS_TYPE":0,"CLASSIFICATION_TYPE":"U","NORAD_CAT_ID":63475,"ELEMENT_SET_NO":999,"REV_AT_EPOCH":4639,"BSTAR":0.0011014224,"MEAN_MOTION_DOT":0.0003017,"MEAN_MOTION_DDOT":0},{"OBJECT_NAME":"STARLINK-33718","OBJECT_ID":"2025-070S","EPOCH":"2026-01-25T16:33:41.738688","MEAN_MOTION":15.27610609,"ECCENTRICITY":2.536e-5,"INCLINATION":42.9998,"RA_OF_ASC_NODE":142.3352,"ARG_OF_PERICENTER":57.759,"MEAN_ANOMALY":302.3286,"EPHEMERIS_TYPE":0,"CLASSIFICATION_TYPE":"U","NORAD_CAT_ID":63476,"ELEMENT_SET_NO":999,"REV_AT_EPOCH":4640,"BSTAR":0.0018729359,"MEAN_MOTION_DOT":0.00051687,"MEAN_MOTION_DDOT":0},{"OBJECT_NAME":"STARLINK-33630","OBJECT_ID":"2025-070T","EPOCH":"2026-01-25T16:54:43.816320","MEAN_MOTION":15.27607338,"ECCENTRICITY":0.0002027,"INCLINATION":43.0012,"RA_OF_ASC_NODE":138.9707,"ARG_OF_PERICENTER":293.958,"MEAN_ANOMALY":66.106,"EPHEMERIS_TYPE":0,"CLASSIFICATION_TYPE":"U","NORAD_CAT_ID":63477,"ELEMENT_SET_NO":999,"REV_AT_EPOCH":4644,"BSTAR":0.0020494917,"MEAN_MOTION_DOT":0.00056618,"MEAN_MOTION_DDOT":0},{"OBJECT_NAME":"STARLINK-33695","OBJECT_ID":"2025-070U","EPOCH":"2026-01-25T15:02:06.094752","MEAN_MOTION":15.27597779,"ECCENTRICITY":0.00035422,"INCLINATION":42.9972,"RA_OF_ASC_NODE":139.243,"ARG_OF_PERICENTER":45.9179,"MEAN_ANOMALY":314.1964,"EPHEMERIS_TYPE":0,"CLASSIFICATION_TYPE":"U","NORAD_CAT_ID":63478,"ELEMENT_SET_NO":999,"REV_AT_EPOCH":4643,"BSTAR":0.0013055296,"MEAN_MOTION_DOT":0.00035862,"MEAN_MOTION_DDOT":0},{"OBJECT_NAME":"STARLINK-33713","OBJECT_ID":"2025-070V","EPOCH":"2026-01-25T16:41:46.597344","MEAN_MOTION":15.27605598,"ECCENTRICITY":0.00016877,"INCLINATION":43.0033,"RA_OF_ASC_NODE":138.8973,"ARG_OF_PERICENTER":252.6566,"MEAN_ANOMALY":107.4101,"EPHEMERIS_TYPE":0,"CLASSIFICATION_TYPE":"U","NORAD_CAT_ID":63479,"ELEMENT_SET_NO":999,"REV_AT_EPOCH":4644,"BSTAR":0.0015535117,"MEAN_MOTION_DOT":0.00042769,"MEAN_MOTION_DDOT":0},{"OBJECT_NAME":"STARLINK-33721","OBJECT_ID":"2025-070W","EPOCH":"2026-01-25T16:45:28.962432","MEAN_MOTION":15.27594029,"ECCENTRICITY":0.00015045,"INCLINATION":43.0037,"RA_OF_ASC_NODE":138.9187,"ARG_OF_PERICENTER":268.2427,"MEAN_ANOMALY":91.8253,"EPHEMERIS_TYPE":0,"CLASSIFICATION_TYPE":"U","NORAD_CAT_ID":63480,"ELEMENT_SET_NO":999,"REV_AT_EPOCH":4644,"BSTAR":0.0022714532,"MEAN_MOTION_DOT":0.00062804,"MEAN_MOTION_DDOT":0},{"OBJECT_NAME":"STARLINK-33639","OBJECT_ID":"2025-070X","EPOCH":"2026-01-25T17:13:13.832544","MEAN_MOTION":15.27605121,"ECCENTRICITY":0.00010451,"INCLINATION":43.0013,"RA_OF_ASC_NODE":139.0601,"ARG_OF_PERICENTER":285.305,"MEAN_ANOMALY":74.7686,"EPHEMERIS_TYPE":0,"CLASSIFICATION_TYPE":"U","NORAD_CAT_ID":63481,"ELEMENT_SET_NO":999,"REV_AT_EPOCH":4644,"BSTAR":0.0010977469,"MEAN_MOTION_DOT":0.00030092,"MEAN_MOTION_DDOT":0},{"OBJECT_NAME":"STARLINK-33688","OBJECT_ID":"2025-070Z","EPOCH":"2026-01-25T17:23:37.523040","MEAN_MOTION":15.27605841,"ECCENTRICITY":0.00034969,"INCLINATION":43.0004,"RA_OF_ASC_NODE":142.5818,"ARG_OF_PERICENTER":244.0805,"MEAN_ANOMALY":115.9687,"EPHEMERIS_TYPE":0,"CLASSIFICATION_TYPE":"U","NORAD_CAT_ID":63483,"ELEMENT_SET_NO":999,"REV_AT_EPOCH":4640,"BSTAR":0.0015340309,"MEAN_MOTION_DOT":0.00042231,"MEAN_MOTION_DDOT":0},{"OBJECT_NAME":"STARLINK-33700","OBJECT_ID":"2025-070AA","EPOCH":"2026-01-25T16:55:52.919904","MEAN_MOTION":15.27602926,"ECCENTRICITY":0.00016317,"INCLINATION":43.0018,"RA_OF_ASC_NODE":142.4383,"ARG_OF_PERICENTER":271.1659,"MEAN_ANOMALY":88.9005,"EPHEMERIS_TYPE":0,"CLASSIFICATION_TYPE":"U","NORAD_CAT_ID":63484,"ELEMENT_SET_NO":999,"REV_AT_EPOCH":4640,"BSTAR":0.0016867476,"MEAN_MOTION_DOT":0.00046479,"MEAN_MOTION_DDOT":0},{"OBJECT_NAME":"STARLINK-33687","OBJECT_ID":"2025-070AB","EPOCH":"2026-01-25T16:39:13.095648","MEAN_MOTION":15.27597966,"ECCENTRICITY":0.00015857,"INCLINATION":43.0013,"RA_OF_ASC_NODE":142.3107,"ARG_OF_PERICENTER":259.6972,"MEAN_ANOMALY":100.3701,"EPHEMERIS_TYPE":0,"CLASSIFICATION_TYPE":"U","NORAD_CAT_ID":63485,"ELEMENT_SET_NO":999,"REV_AT_EPOCH":4640,"BSTAR":0.0012560539,"MEAN_MOTION_DOT":0.00034483,"MEAN_MOTION_DDOT":0},{"OBJECT_NAME":"STARLINK-33716","OBJECT_ID":"2025-070AC","EPOCH":"2026-01-25T16:46:38.720928","MEAN_MOTION":15.27598369,"ECCENTRICITY":7.838e-5,"INCLINATION":42.999,"RA_OF_ASC_NODE":142.4076,"ARG_OF_PERICENTER":274.9192,"MEAN_ANOMALY":85.157,"EPHEMERIS_TYPE":0,"CLASSIFICATION_TYPE":"U","NORAD_CAT_ID":63486,"ELEMENT_SET_NO":999,"REV_AT_EPOCH":4640,"BSTAR":0.002314687,"MEAN_MOTION_DOT":0.00064023,"MEAN_MOTION_DDOT":0},{"OBJECT_NAME":"STARLINK-33754","OBJECT_ID":"2025-070AD","EPOCH":"2026-01-25T15:42:05.595552","MEAN_MOTION":15.27595222,"ECCENTRICITY":7.487e-5,"INCLINATION":43.0011,"RA_OF_ASC_NODE":142.9117,"ARG_OF_PERICENTER":338.3699,"MEAN_ANOMALY":21.7121,"EPHEMERIS_TYPE":0,"CLASSIFICATION_TYPE":"U","NORAD_CAT_ID":63487,"ELEMENT_SET_NO":999,"REV_AT_EPOCH":4639,"BSTAR":0.0012420517,"MEAN_MOTION_DOT":0.0003409,"MEAN_MOTION_DDOT":0}]
