STARLINK-33744          
1 63471U 25070M   26025.72989360  .00043510  00000+0  15800-2 0  9992
2 63471  43.0014 142.6405 0001428 273.7909  86.2779 15.27607683 46407
STARLINK-33766          
1 63472U 25070N   26025.60811629  .00042309  00000+0  15368-2 0  9996
2 63472  42.9997 143.4488 0001455 283.3069  76.7620 15.27609594 46389
STARLINK-33765          
1 63473U 25070P   26025.72089467  .00036982  00000+0  13455-2 0  9992
2 63473  43.0013 142.5709 0002194 258.9589 101.1016 15.27608708 46404
STARLINK-33735          
1 63474U 25070Q   26025.70289831  .00064337  00000+0  23236-2 0  9991
2 63474  43.0029 142.4362 0003762 250.1172 109.9274 15.27626107 46405
STARLINK-33731          
1 63475U 25070R   26025.67735871  .00030170  00000+0  11014-2 0  9997
2 63475  42.9997 143.1071 0001448 280.4567  79.6121 15.27579329 46391
STARLINK-33718          
1 63476U 25070S   26025.69006642  .00051687  00000+0  18729-2 0  9993
2 63476  42.9998 142.3352 0000253  57.7590 302.3286 15.27610609 46407
STARLINK-33630          
1 63477U 25070T   26025.70467380  .00056618  00000+0  20495-2 0  9998
2 63477  43.0012 138.9707 0002027 293.9580  66.1060 15.27607338 46440
STARLINK-33695          
1 63478U 25070U   26025.62645943  .00035862  00000+0  13055-2 0  9995
2 63478  42.9972 139.2430 0003542  45.9179 314.1964 15.27597779 46438
STARLINK-33713          
1 63479U 25070V   26025.69567821  .00042769  00000+0  15535-2 0  9990
2 63479  43.0033 138.8973 0001687 252.6566 107.4101 15.27605598 46447
STARLINK-33721          
1 63480U 25070W   26025.69825188  .00062804  00000+0  22715-2 0  9995
2 63480  43.0037 138.9187 0001504 268.2427  91.8253 15.27594029 46448
STARLINK-33639          
1 63481U 25070X   26025.71752121  .00030092  00000+0  10977-2 0  9996
2 63481  43.0013 139.0601 0001045 285.3050  74.7686 15.27605121 46444
STARLINK-33688          
1 63483U 25070Z   26025.72473985  .00042231  00000+0  15340-2 0  9994
2 63483  43.0004 142.5818 0003496 244.0805 115.9687 15.27605841 46401
STARLINK-33700          
1 63484U 25070AA  26025.70547361  .00046479  00000+0  16867-2 0  9996
2 63484  43.0018 142.4383 0001631 271.1659  88.9005 15.27602926 46404
STARLINK-33687          
1 63485U 25070AB  26025.69390157  .00034483  00000+0  12561-2 0  9993
2 63485  43.0013 142.3107 0001585 259.6972 100.3701 15.27597966 46409
STARLINK-33716          
1 63486U 25070AC  26025.69905927  .00064023  00000+0  23147-2 0  9996
2 63486  42.9990 142.4076 0000783 274.9192  85.1570 15.27598369 46403
STARLINK-33754          
1 63487U 25070AD  26025.65423143  .00034090  00000+0  12421-2 0  9992
2 63487  43.0011 142.9117 0000748 338.3699  21.7121 15.27595222 46390
